{
    "links": {
        "self": "http://www.neowsapp.com/rest/v1/neo/3787088?api_key=iIulBulltgU6a56xZRHN4H3l9WmuAYTsLGpBGhQ2"
    },
    "id": "3787088",
    "neo_reference_id": "3787088",
    "name": "(2017 UH1)",
    "designation": "2017 UH1",
    "nasa_jpl_url": "http://ssd.jpl.nasa.gov/sbdb.cgi?sstr=3787088",
    "absolute_magnitude_h": 26.1,
    "estimated_diameter": {
        "kilometers": {
            "estimated_diameter_min": 0.0160160338,
            "estimated_diameter_max": 0.0358129403
        },
        "meters": {
            "estimated_diameter_min": 16.0160337979,
            "estimated_diameter_max": 35.8129403019
        },
        "miles": {
            "estimated_diameter_min": 0.0099518989,
            "estimated_diameter_max": 0.0222531225
        },
        "feet": {
            "estimated_diameter_min": 52.5460443254,
            "estimated_diameter_max": 117.4965270602
        }
    },
    "is_potentially_hazardous_asteroid": false,
    "close_approach_data": [
        {
            "close_approach_date": "1994-10-26",
            "close_approach_date_full": "1994-Oct-26 06:46",
            "epoch_date_close_approach": 783153960000,
            "relative_velocity": {
                "kilometers_per_second": "19.2008089588",
                "kilometers_per_hour": "69122.9122517534",
                "miles_per_hour": "42950.2895599854"
            },
            "miss_distance": {
                "astronomical": "0.1031735489",
                "lunar": "40.1345105221",
                "kilometers": "15434543.155780843",
                "miles": "9590580.3958799134"
            },
            "orbiting_body": "Earth"
        },
        {
            "close_approach_date": "2017-10-21",
            "close_approach_date_full": "2017-Oct-21 07:09",
            "epoch_date_close_approach": 1508569740000,
            "relative_velocity": {
                "kilometers_per_second": "21.8691962366",
                "kilometers_per_hour": "78729.1064517596",
                "miles_per_hour": "48919.2050616503"
            },
            "miss_distance": {
                "astronomical": "0.0127058926",
                "lunar": "4.9425922214",
                "kilometers": "1900774.469408762",
                "miles": "1181086.4875824356"
            },
            "orbiting_body": "Earth"
        },
        {
            "close_approach_date": "2019-09-28",
            "close_approach_date_full": "2019-Sep-28 01:18",
            "epoch_date_close_approach": 1569633480000,
            "relative_velocity": {
                "kilometers_per_second": "36.4036370864",
                "kilometers_per_hour": "131053.0935108859",
                "miles_per_hour": "81431.2957984724"
            },
            "miss_distance": {
                "astronomical": "0.4990978956",
                "lunar": "194.1490813884",
                "kilometers": "74663982.103242372",
                "miles": "46394047.1584018536"
            },
            "orbiting_body": "Earth"
        },
        {
            "close_approach_date": "2083-03-20",
            "close_approach_date_full": "2083-Mar-20 14:08",
            "epoch_date_close_approach": 3572777280000,
            "relative_velocity": {
                "kilometers_per_second": "17.6120983145",
                "kilometers_per_hour": "63403.553932119",
                "miles_per_hour": "39396.5027196547"
            },
            "miss_distance": {
                "astronomical": "0.3854773652",
                "lunar": "149.9506950628",
                "kilometers": "57666592.767132124",
                "miles": "35832359.1769223512"
            },
            "orbiting_body": "Earth"
        }
    ],
    "orbital_data": {
        "orbit_id": "1",
        "orbit_determination_date": "2017-10-19 09:42:05",
        "first_observation_date": "2017-10-16",
        "last_observation_date": "2017-10-19",
        "data_arc_in_days": 3,
        "observations_used": 39,
        "orbit_uncertainty": "8",
        "minimum_orbit_intersection": ".0123072",
        "jupiter_tisserand_invariant": "4.156",
        "epoch_osculation": "2458044.5",
        "eccentricity": ".6532265251753301",
        "semi_major_axis": "1.542922882602254",
        "inclination": "18.11596493171749",
        "ascending_node_longitude": "25.71550937329905",
        "orbital_period": "700.0269448408621",
        "perihelion_distance": ".5350447293864798",
        "perihelion_argument": "102.2926657147231",
        "aphelion_distance": "2.550801035818028",
        "perihelion_time": "2458098.176476125181",
        "mean_anomaly": "332.3960176854935",
        "mean_motion": ".5142659188380801",
        "equinox": "J2000",
        "orbit_class": {
            "orbit_class_type": "APO",
            "orbit_class_description": "Near-Earth asteroid orbits which cross the Earth’s orbit similar to that of 1862 Apollo",
            "orbit_class_range": "a (semi-major axis) > 1.0 AU; q (perihelion) < 1.017 AU"
        }
    },
    "is_sentry_object": false
}